NORAD_CAT_ID,OBJECT_NAME,OBJECT_TYPE,EPOCH,MEAN_MOTION,ECCENTRICITY,INCLINATION,RA_OF_ASC_NODE,ARG_OF_PERICENTER,MEAN_ANOMALY,BSTAR,MEAN_MOTION_DOT,MEAN_MOTION_DDOT,TLE_LINE0,TLE_LINE1,TLE_LINE2,SEMIMAJOR_AXIS,PERIOD,APOGEE,PERIGEE,DECAYED
55306.0,STARLINK-5295,PAYLOAD,2024-05-02 13:49:31,14.98331109,0.0002982,69.9998,269.3108,271.4972,88.5846,-2.1625e-05,-3.51e-06,0.0,0 STARLINK-5295,1 55306U 23010AP  24123.57606332 -.00000351  00000-0 -21625-4 0  9990,2 55306  69.9998 269.3108 0002982 271.4972  88.5846 14.98331109 72493,6950.189,96.107,574.127,569.982,0.0
55306.0,STARLINK-5295,PAYLOAD,2024-05-02 20:14:03,14.98333411,0.0002942,69.9999,268.6378,270.5733,89.5089,5.5813e-06,-2.6e-07,0.0,0 STARLINK-5295,1 55306U 23010AP  24123.84310058 -.00000026  00000-0  55813-5 0  9992,2 55306  69.9999 268.6378 0002942 270.5733  89.5089 14.98333411 72214,6950.182,96.107,574.092,570.003,0.0
55306.0,STARLINK-5295,PAYLOAD,2024-05-03 15:27:40,14.98329545,0.0002923,69.9998,266.6179,270.3588,89.7236,1.1163e-05,4e-07,0.0,0 STARLINK-5295,1 55306U 23010AP  24124.64422197  .00000040  00000-0  11163-4 0  9993,2 55306  69.9998 266.6179 0002923 270.3588  89.7236 14.98329545 72652,6950.194,96.107,574.091,570.028,0.0
55306.0,STARLINK-5295,PAYLOAD,2024-05-03 18:39:56,14.98330922,0.000289,69.9998,266.2811,270.8628,89.22,2.5814e-05,2.15e-06,0.0,0 STARLINK-5295,1 55306U 23010AP  24124.77774067  .00000215  00000-0  25814-4 0  9995,2 55306  69.9998 266.2811 0002890 270.8628  89.2200 14.98330922 72673,6950.19,96.107,574.064,570.046,0.0
55306.0,STARLINK-5295,PAYLOAD,2024-05-04 12:17:25,14.98325864,0.0002882,69.9998,264.4295,270.5826,89.5003,-2.5039e-05,-3.92e-06,0.0,0 STARLINK-5295,1 55306U 23010AP  24125.51210564 -.00000392  00000-0 -25039-4 0  9992,2 55306  69.9998 264.4295 0002882 270.5826  89.5003 14.98325864 72467,6950.206,96.107,574.074,570.068,0.0
55306.0,STARLINK-5295,PAYLOAD,2024-05-05 12:19:26,14.98332738,0.0003054,69.9996,261.904,270.1836,89.8973,8.4667e-05,9.17e-06,0.0,0 STARLINK-5295,1 55306U 23010AP  24126.51349809  .00000917  00000-0  84667-4 0  9991,2 55306  69.9996 261.9040 0003054 270.1836  89.8973 14.98332738 72618,6950.184,96.107,574.172,569.927,0.0
55306.0,STARLINK-5295,PAYLOAD,2024-05-05 13:55:34,14.98332828,0.0003057,69.9996,261.7357,270.1837,89.8972,8.4337e-05,9.13e-06,0.0,0 STARLINK-5295,1 55306U 23010AP  24126.58025794  .00000913  00000-0  84337-4 0  9992,2 55306  69.9996 261.7357 0003057 270.1837  89.8972 14.98332828 72946,6950.184,96.107,574.174,569.924,0.0
55306.0,STARLINK-5295,PAYLOAD,2024-05-05 18:43:58,14.98337834,0.0003047,69.9997,261.2301,269.0389,91.0421,8.5583e-05,9.28e-06,0.0,0 STARLINK-5295,1 55306U 23010AP  24126.78053387  .00000928  00000-0  85583-4 0  9993,2 55306  69.9997 261.2301 0003047 269.0389  91.0421 14.98337834 72978,6950.169,96.106,574.151,569.916,0.0
55306.0,STARLINK-5295,PAYLOAD,2024-05-06 12:21:27,14.98329134,0.0003082,69.9998,259.379,269.2086,90.872,3.5786e-05,3.34e-06,0.0,0 STARLINK-5295,1 55306U 23010AP  24127.51489950  .00000334  00000-0  35786-4 0  9995,2 55306  69.9998 259.3790 0003082 269.2086  90.8720 14.98329134 72764,6950.196,96.107,574.203,569.919,0.0
55306.0,STARLINK-5295,PAYLOAD,2024-05-06 13:57:35,14.98329512,0.0003078,69.9998,259.2107,269.1782,90.9024,3.9284e-05,3.76e-06,0.0,0 STARLINK-5295,1 55306U 23010AP  24127.58165917  .00000376  00000-0  39284-4 0  9999,2 55306  69.9998 259.2107 0003078 269.1782  90.9024 14.98329512 73097,6950.194,96.107,574.199,569.92,0.0
55306.0,STARLINK-5295,PAYLOAD,2024-05-06 18:45:58,14.98336051,0.0003041,69.9998,258.7057,268.8467,91.2344,0.0001068,1.182e-05,0.0,0 STARLINK-5295,1 55306U 23010AP  24127.78193251  .00001182  00000-0  10680-3 0  9997,2 55306  69.9998 258.7057 0003041 268.8467  91.2344 14.98336051 72804,6950.174,96.107,574.153,569.926,0.0
55306.0,STARLINK-5295,PAYLOAD,2024-05-07 12:23:28,14.98331817,0.0002929,70.0003,256.8542,269.5171,90.5652,-5.256e-05,-7.2e-06,0.0,0 STARLINK-5295,1 55306U 23010AP  24128.51629807 -.00000720  00000-0 -52560-4 0  9993,2 55306  70.0003 256.8542 0002929 269.5171  90.5652 14.98331817 72917,6950.187,96.107,574.088,570.017,0.0
55306.0,STARLINK-5295,PAYLOAD,2024-05-07 13:59:36,14.98341647,0.0002644,70.0002,256.6859,271.7941,88.2916,-0.00023377,-2.882e-05,0.0,0 STARLINK-5295,1 55306U 23010AP  24128.58305650 -.00002882  00000-0 -23377-3 0  9991,2 55306  70.0002 256.6859 0002644 271.7941  88.2916 14.98341647 73245,6950.157,96.106,573.859,570.184,0.0
55306.0,STARLINK-5295,PAYLOAD,2024-05-07 18:48:00,14.98335649,0.0002865,70.0004,256.1827,265.1515,94.9317,-3.6136e-05,-5.24e-06,0.0,0 STARLINK-5295,1 55306U 23010AP  24128.78333418 -.00000524  00000-0 -36136-4 0  9995,2 55306  70.0004 256.1827 0002865 265.1515  94.9317 14.98335649 73273,6950.175,96.107,574.032,570.049,0.0
55306.0,STARLINK-5295,PAYLOAD,2024-05-08 01:12:35,14.98297448,0.0003163,70.0005,255.5077,270.6303,89.4494,-0.00038777,-4.713e-05,0.0,0 STARLINK-5295,1 55306U 23010AP  24129.05040889 -.00004713  00000-0 -38777-3 0  9999,2 55306  70.0005 255.5077 0003163 270.6303  89.4494 14.98297448 72999,6950.294,96.109,574.357,569.96,0.0
55306.0,STARLINK-5295,PAYLOAD,2024-05-08 12:25:30,14.98325246,0.0002764,70.0003,254.3296,252.7238,107.3618,-4.2408e-05,-5.99e-06,0.0,0 STARLINK-5295,1 55306U 23010AP  24129.51771283 -.00000599  00000-0 -42408-4 0  9994,2 55306  70.0003 254.3296 0002764 252.7238 107.3618 14.98325246 73066,6950.208,96.107,573.994,570.152,0.0
55306.0,STARLINK-5295,PAYLOAD,2024-05-08 14:01:38,14.98327414,0.000299,70.0001,254.1613,267.723,92.3586,-2.2252e-05,-3.58e-06,0.0,0 STARLINK-5295,1 55306U 23010AP  24129.58447168 -.00000358  00000-0 -22252-4 0  9991,2 55306  70.0001 254.1613 0002990 267.7230  92.3586 14.98327414 73396,6950.201,96.107,574.144,569.988,0.0
55306.0,STARLINK-5295,PAYLOAD,2024-05-08 17:13:54,14.98329596,0.0002835,70.0005,253.8259,265.9534,94.1301,-1.3993e-06,-1.1e-06,0.0,0 STARLINK-5295,1 55306U 23010AP  24129.71799036 -.00000110  00000-0 -13993-5 0  9999,2 55306  70.0005 253.8259 0002835 265.9534  94.1301 14.98329596 73418,6950.194,96.107,574.03,570.089,0.0
55306.0,STARLINK-5295,PAYLOAD,2024-05-09 01:14:34,14.98334953,0.0002984,70.0004,252.984,268.252,91.8298,8.9231e-05,9.72e-06,0.0,0 STARLINK-5295,1 55306U 23010AP  24130.05178420  .00000972  00000-0  89231-4 0  9997,2 55306  70.0004 252.9840 0002984 268.2520  91.8298 14.98334953 73141,6950.178,96.107,574.117,569.969,0.0
55306.0,STARLINK-5295,PAYLOAD,2024-05-09 14:03:37,14.98342914,0.0003244,69.9996,251.6363,272.3255,87.7533,0.00019326,2.214e-05,0.0,0 STARLINK-5295,1 55306U 23010AP  24130.58585476  .00002214  00000-0  19326-3 0  9996,2 55306  69.9996 251.6363 0003244 272.3255  87.7533 14.98342914 73541,6950.153,96.106,574.273,569.763,0.0
55306.0,STARLINK-5295,PAYLOAD,2024-05-09 17:15:53,14.98348549,0.0003088,69.9999,251.2999,270.7895,89.291,0.00024977,2.89e-05,0.0,0 STARLINK-5295,1 55306U 23010AP  24130.71936843  .00002890  00000-0  24977-3 0  9997,2 55306  69.9999 251.2999 0003088 270.7895  89.2910 14.98348549 73246,6950.136,96.106,574.147,569.854,0.0
55306.0,STARLINK-5295,PAYLOAD,2024-05-10 14:05:39,14.98338263,0.0003164,69.9998,249.1118,269.8155,90.2641,2.3295e-05,1.85e-06,0.0,0 STARLINK-5295,1 55306U 23010AP  24131.58726346  .00000185  00000-0  23295-4 0  9996,2 55306  69.9998 249.1118 0003164 269.8155  90.2641 14.98338263 73376,6950.167,96.106,574.231,569.833,0.0
55306.0,STARLINK-5295,PAYLOAD,2024-05-10 17:17:55,14.98340908,0.0003094,70.0,248.7751,270.019,90.0614,5.8706e-05,6.08e-06,0.0,0 STARLINK-5295,1 55306U 23010AP  24131.72078003  .00000608  00000-0  58706-4 0  9997,2 55306  70.0000 248.7751 0003094 270.0190  90.0614 14.98340908 73711,6950.159,96.106,574.175,569.874,0.0
55306.0,STARLINK-5295,PAYLOAD,2024-05-11 14:07:34,14.98408325,0.0003061,69.9999,246.5868,274.0895,85.9914,0.00051417,6.06e-05,0.0,0 STARLINK-5295,1 55306U 23010AP  24132.58858981  .00006060  00000-0  51417-3 0  9992,2 55306  69.9999 246.5868 0003061 274.0895  85.9914 14.98408325 73523,6949.951,96.102,573.943,569.688,0.0
55306.0,STARLINK-5295,PAYLOAD,2024-05-11 17:19:55,14.98331787,0.0002842,69.9999,246.2502,286.2225,73.8621,-0.00035492,-4.325e-05,0.0,0 STARLINK-5295,1 55306U 23010AP  24132.72217223 -.00004325  00000-0 -35492-3 0  9995,2 55306  69.9999 246.2502 0002842 286.2225  73.8621 14.98331787 73543,6950.187,96.107,574.028,570.077,0.0
55306.0,STARLINK-5295,PAYLOAD,2024-05-12 14:09:51,14.98221172,0.0002998,70.0001,244.063,273.423,86.6586,-0.0011479,-0.00013724,0.0,0 STARLINK-5295,1 55306U 23010AP  24133.59017419 -.00013724  00000-0 -11479-2 0  9997,2 55306  70.0001 244.0630 0002998 273.4230  86.6586 14.98221172 73676,6950.529,96.114,574.478,570.311,0.0
55306.0,STARLINK-5295,PAYLOAD,2024-05-12 17:22:08,14.98218793,0.000302,70.0001,243.7259,274.5953,85.4861,-0.0011317,-0.00013531,0.0,0 STARLINK-5295,1 55306U 23010AP  24133.72370498 -.00013531  00000-0 -11317-2 0  9998,2 55306  70.0001 243.7259 0003020 274.5953  85.4861 14.98218793 74017,6950.537,96.114,574.501,570.303,0.0
55306.0,STARLINK-5295,PAYLOAD,2024-05-13 10:59:29,14.98365559,0.0002917,69.9999,241.8742,268.4487,91.6338,-0.00024692,-3.041e-05,0.0,0 STARLINK-5295,1 55306U 23010AP  24134.45797492 -.00003041  00000-0 -24692-3 0  9992,2 55306  69.9999 241.8742 0002917 268.4487  91.6338 14.98365559 73801,6950.083,96.105,573.975,569.921,0.0
55306.0,STARLINK-5295,PAYLOAD,2024-05-13 14:11:44,14.98366965,0.0002916,70.0003,241.5377,270.7159,89.3666,-0.00020858,-2.583e-05,0.0,0 STARLINK-5295,1 55306U 23010AP  24134.59149142 -.00002583  00000-0 -20858-3 0  9990,2 55306  70.0003 241.5377 0002916 270.7159  89.3666 14.98366965 74140,6950.079,96.105,573.97,569.917,0.0
55306.0,STARLINK-5295,PAYLOAD,2024-05-13 17:24:00,14.98368173,0.0002845,70.0003,241.2007,271.7365,88.3468,-0.00015836,-1.984e-05,0.0,0 STARLINK-5295,1 55306U 23010AP  24134.72500865 -.00001984  00000-0 -15836-3 0  9992,2 55306  70.0003 241.2007 0002845 271.7365  88.3468 14.98368173 74162,6950.075,96.105,573.917,569.963,0.0
